PROBA-1                 
1 26958U 01049B   22326.42232680  .00000872  00000+0  77615-4 0  9992
2 26958  97.8441 286.4783 0070879 176.0417 184.1381 14.96886436148105
BIRD 2                  
1 26959U 01049C   22326.01432910  .00019584  00000+0  35869-3 0  9990
2 26959  97.7641  68.9426 0006503 156.8301 203.3243 15.49351606171297
CUTE-1 (CO-55)          
1 27844U 03031E   22325.56362678  .00000257  00000+0  13461-3 0  9990
2 27844  98.6800 330.8975 0010026  13.5433 346.6012 14.22543550  6213
CUBESAT XI-IV (CO-57)   
1 27848U 03031J   22325.01323497  .00000207  00000+0  11332-3 0  9990
2 27848  98.6842 330.8390 0010213  29.1646 331.0100 14.22087501  5912
GENESIS 1               
1 29252U 06029A   22326.09758535  .00005470  00000+0  23763-3 0  9993
2 29252  64.5216 272.8991 0050293 238.8537 120.7651 15.22273270903026
FALCONSAT-3             
1 30776U 07006E   22325.64365123  .00108211  00000+0  73938-3 0  9995
2 30776  35.4266 299.5574 0007314 211.2922 148.7382 15.73456888874159
GENESIS 2               
1 31789U 07028A   22326.22136500  .00005129  00000+0  22865-3 0  9991
2 31789  64.4954 316.0858 0058864 290.6338  68.8480 15.21073508849945
APRIZESAT 4             
1 35684U 09041D   22326.06139860  .00000488  00000+0  71312-4 0  9995
2 35684  98.3042 345.0797 0046084 204.6432 155.2577 14.79841071718428
APRIZESAT 3             
1 35686U 09041F   22325.98229386  .00000750  00000+0  83984-4 0  9990
2 35686  98.1036  56.1389 0072337  32.4227 328.1402 14.88256553722087
PROBA-2                 
1 36037U 09059B   22326.09607366  .00000187  00000+0  55656-4 0  9990
2 36037  98.2218 149.7491 0013149 348.1609  11.9276 14.53332811692245
APRIZESAT 5             
1 37792U 11044E   22326.27057122  .00000539  00000+0  84585-4 0  9999
2 37792  98.3004 206.1457 0056589 220.2374 139.4639 14.75966416606413
APRIZESAT 6             
1 37793U 11044F   22326.20536326  .00000492  00000+0  84287-4 0  9998
2 37793  98.3790 183.4783 0045251 275.9622 200.2823 14.72952565605230
TET-1                   
1 38710U 12039D   22322.14595134  .13257459  26344-5  16471-3 0  9999
2 38710  97.4692  57.2581 0008682 273.2579  86.7731 16.49472605581735
PROBA-V                 
1 39159U 13021A   22326.35644995  .00000041  00000+0  36240-4 0  9997
2 39159  98.3413 354.1691 0004104   6.2451 353.8778 14.23060781495789
STPSAT-3                
1 39380U 13064A   22326.24779589  .00036345  00000+0  49555-3 0  9994
2 39380  40.4954 161.2819 0010444 345.8099  14.2427 15.56681103505422
APRIZESAT 7             
1 39416U 13066A   22325.79969132  .00000720  00000+0  89854-4 0  9995
2 39416  97.5925 298.2433 0039922 197.5099 162.4742 14.84755928487387
APRIZESAT 8             
1 39425U 13066K   22325.86508261  .00000678  00000+0  90506-4 0  9993
2 39425  97.6492 290.0419 0049745 244.3827 115.2242 14.81880397486279
BUGSAT-1 (TITA)         
1 40014U 14033E   22326.28069651  .00001648  00000+0  14615-3 0  9990
2 40014  98.1463 331.2395 0029294 234.3243 125.5251 14.97423616459759
SAUDISAT 4              
1 40016U 14033G   22325.88864699  .00000404  00000+0  65156-4 0  9998
2 40016  97.6353 152.0755 0047784 352.3764   7.6715 14.75712204453619
APRIZESAT 9             
1 40018U 14033J   22326.42280775  .00000350  00000+0  63283-4 0  9997
2 40018  97.7289 128.6862 0072168  66.8592 294.0199 14.70435120451999
APRIZESAT 10            
1 40019U 14033K   22326.42306731  .00000408  00000+0  76395-4 0  9991
2 40019  97.7877 118.6989 0085002 111.9764 249.0501 14.67466917451144
TDS 1                   
1 40076U 14037H   22325.67760469  .00002514  00000+0  29195-3 0  9991
2 40076  98.3669 206.8774 0005525 290.0653  69.9966 14.86365204453057
TIANTUO 2               
1 40144U 14053B   22326.46087100  .00005965  00000+0  15199-3 0  9999
2 40144  97.1826  43.3367 0010147 357.9911  63.4665 15.39866482459394
TECHNOSAT               
1 42829U 17042E   22326.35426419  .00001086  00000+0  11125-3 0  9995
2 42829  97.4011 171.1684 0013308 192.8949 167.1933 14.92305287291636
FLYING LAPTOP           
1 42831U 17042G   22326.14217273  .00001770  00000+0  17885-3 0  9990
2 42831  97.4031 171.3095 0013288 193.8163 166.2682 14.92138473291604
HAWK-A                  
1 43765U 18099H   22325.85518776  .00001941  00000+0  17037-3 0  9998
2 43765  97.6014  29.7836 0016016 102.9344 257.3668 14.97659196216694
HAWK-B                  
1 43794U 18099AN  22326.18960226  .00001903  00000+0  16709-3 0  9991
2 43794  97.6014  30.1089 0016093 102.0673 258.2354 14.97665432216730
HAWK-C                  
1 43799U 18099AT  22326.12259774  .00002012  00000+0  17635-3 0  9990
2 43799  97.6012  29.9495 0015998 102.0123 258.2893 14.97667446216727
SALSAT                  
1 46495U 20068K   22325.81944618  .00001851  00000+0  13329-3 0  9994
2 46495  97.7456 267.3551 0018108 102.3046 258.0209 15.05331440117855
